FLOCK 4G-27             
1 62641U 25009AJ  26068.75406453  .00012587  00000+0  47455-3 0  9991
2 62641  97.3976 150.8631 0000756 322.4974  37.6212 15.27199247 63710
STARLINK-34149          
1 64140U 25111T   26068.03444666  .00049457  00000+0  17930-2 0  9990
2 64140  43.0106  81.5356 0002015 297.0909  62.9737 15.27611973 45367
